{"type": "FeatureCollection", "features": [ {"type": "Feature", "properties": {"norad_id": 66937, "name": "STARLINK-36165", "group": "last-30-days", "lat": -10.738315444875157, "lon": -151.17569912769116, "alt_km": 326.0769252742257, "timestamp": "2025-12-18T15:47:09.961846+00:00", "meta": {"OBJECT_NAME": "STARLINK-36165", "OBJECT_ID": "2025-286N", "EPOCH": "2025-12-18T06:00:02.999808", "MEAN_MOTION": 15.83670813, "ECCENTRICITY": 8.083e-05, "INCLINATION": 53.1561, "RA_OF_ASC_NODE": 22.6996, "ARG_OF_PERICENTER": 82.6392, "MEAN_ANOMALY": 305.792, "EPHEMERIS_TYPE": 0, "CLASSIFICATION_TYPE": "U", "NORAD_CAT_ID": 66937, "ELEMENT_SET_NO": 999, "REV_AT_EPOCH": 287, "BSTAR": -0.0070776934, "MEAN_MOTION_DOT": -0.01389716, "MEAN_MOTION_DDOT": 0}, "tle": {"line1": "1 66937U 25286N   25352.25003472 -.01389716  00000+0 -70777-2 0  9990", "line2": "2 66937  53.1561  22.6996 0000808  82.6392 305.7920 15.83670813  2879"}}, "geometry": {"type": "Point", "coordinates": [-151.17569912769116, -10.738315444875157]}}, {"type": "Feature", "properties": {"norad_id": 66938, "name": "STARLINK-36155", "group": "last-30-days", "lat": -12.441955493081265, "lon": -149.83291846228693, "alt_km": 326.37035677533913, "timestamp": "2025-12-18T15:47:09.961856+00:00", "meta": {"OBJECT_NAME": "STARLINK-36155", "OBJECT_ID": "2025-286P", "EPOCH": "2025-12-18T06:00:02.999808", "MEAN_MOTION": 15.83684166, "ECCENTRICITY": 8.185e-05, "INCLINATION": 53.156, "RA_OF_ASC_NODE": 22.695, "ARG_OF_PERICENTER": 73.9762, "MEAN_ANOMALY": 316.6003, "EPHEMERIS_TYPE": 0, "CLASSIFICATION_TYPE": "U", "NORAD_CAT_ID": 66938, "ELEMENT_SET_NO": 999, "REV_AT_EPOCH": 287, "BSTAR": -0.007135126, "MEAN_MOTION_DOT": -0.01428192, "MEAN_MOTION_DDOT": 0}, "tle": {"line1": "1 66938U 25286P   25352.25003472 -.01428192  00000+0 -71351-2 0  9992", "line2": "2 66938  53.1560  22.6950 0000818  73.9762 316.6003 15.83684166  2873"}}, "geometry": {"type": "Point", "coordinates": [-149.83291846228693, -12.441955493081265]}}, {"type": "Feature", "properties": {"norad_id": 66939, "name": "STARLINK-36154", "group": "last-30-days", "lat": -16.031368632025195, "lon": -146.92263981404014, "alt_km": 326.7090383158393, "timestamp": "2025-12-18T15:47:09.961866+00:00", "meta": {"OBJECT_NAME": "STARLINK-36154", "OBJECT_ID": "2025-286Q", "EPOCH": "2025-12-18T06:00:02.999808", "MEAN_MOTION": 15.83679799, "ECCENTRICITY": 8.085e-05, "INCLINATION": 53.1558, "RA_OF_ASC_NODE": 22.6855, "ARG_OF_PERICENTER": 83.6243, "MEAN_ANOMALY": 311.5373, "EPHEMERIS_TYPE": 0, "CLASSIFICATION_TYPE": "U", "NORAD_CAT_ID": 66939, "ELEMENT_SET_NO": 999, "REV_AT_EPOCH": 287, "BSTAR": -0.0071889573, "MEAN_MOTION_DOT": -0.01437485, "MEAN_MOTION_DDOT": 0}, "tle": {"line1": "1 66939U 25286Q   25352.25003472 -.01437485  00000+0 -71890-2 0  9996", "line2": "2 66939  53.1558  22.6855 0000808  83.6243 311.5373 15.83679799  2876"}}, "geometry": {"type": "Point", "coordinates": [-146.92263981404014, -16.031368632025195]}}, {"type": "Feature", "properties": {"norad_id": 66940, "name": "STARLINK-36121", "group": "last-30-days", "lat": -17.66239018234833, "lon": -145.55601814532304, "alt_km": 326.8073366395174, "timestamp": "2025-12-18T15:47:09.961878+00:00", "meta": {"OBJECT_NAME": "STARLINK-36121", "OBJECT_ID": "2025-286R", "EPOCH": "2025-12-18T06:00:02.999808", "MEAN_MOTION": 15.83687783, "ECCENTRICITY": 7.147e-05, "INCLINATION": 53.1556, "RA_OF_ASC_NODE": 22.6809, "ARG_OF_PERICENTER": 86.7591, "MEAN_ANOMALY": 310.4879, "EPHEMERIS_TYPE": 0, "CLASSIFICATION_TYPE": "U", "NORAD_CAT_ID": 66940, "ELEMENT_SET_NO": 999, "REV_AT_EPOCH": 287, "BSTAR": -0.0071997093, "MEAN_MOTION_DOT": -0.01439825, "MEAN_MOTION_DDOT": 0}, "tle": {"line1": "1 66940U 25286R   25352.25003472 -.01439825  00000+0 -71997-2 0  9996", "line2": "2 66940  53.1556  22.6809 0000714  86.7591 310.4879 15.83687783  2872"}}, "geometry": {"type": "Point", "coordinates": [-145.55601814532304, -17.66239018234833]}}, {"type": "Feature", "properties": {"norad_id": 66941, "name": "STARLINK-36088", "group": "last-30-days", "lat": -14.332338319890564, "lon": -148.31566387931633, "alt_km": 326.48365102441585, "timestamp": "2025-12-18T15:47:09.961888+00:00", "meta": {"OBJECT_NAME": "STARLINK-36088", "OBJECT_ID": "2025-286S", "EPOCH": "2025-12-18T06:00:02.999808", "MEAN_MOTION": 15.83675247, "ECCENTRICITY": 8.044e-05, "INCLINATION": 53.1558, "RA_OF_ASC_NODE": 22.6897, "ARG_OF_PERICENTER": 87.1402, "MEAN_ANOMALY": 305.8553, "EPHEMERIS_TYPE": 0, "CLASSIFICATION_TYPE": "U", "NORAD_CAT_ID": 66941, "ELEMENT_SET_NO": 999, "REV_AT_EPOCH": 287, "BSTAR": -0.0071739657, "MEAN_MOTION_DOT": -0.01434542, "MEAN_MOTION_DDOT": 0}, "tle": {"line1": "1 66941U 25286S   25352.25003472 -.01434542  00000+0 -71740-2 0  9994", "line2": "2 66941  53.1558  22.6897 0000804  87.1402 305.8553 15.83675247  2877"}}, "geometry": {"type": "Point", "coordinates": [-148.31566387931633, -14.332338319890564]}}, {"type": "Feature", "properties": {"norad_id": 66942, "name": "STARLINK-36100", "group": "last-30-days", "lat": -19.33903992140506, "lon": -144.11612199510984, "alt_km": 327.219162374211, "timestamp": "2025-12-18T15:47:09.961898+00:00", "meta": {"OBJECT_NAME": "STARLINK-36100", "OBJECT_ID": "2025-286T", "EPOCH": "2025-12-18T06:00:02.999808", "MEAN_MOTION": 15.83569774, "ECCENTRICITY": 7.12e-05, "INCLINATION": 53.1558, "RA_OF_ASC_NODE": 22.6763, "ARG_OF_PERICENTER": 47.0431, "MEAN_ANOMALY": 352.4691, "EPHEMERIS_TYPE": 0, "CLASSIFICATION_TYPE": "U", "NORAD_CAT_ID": 66942, "ELEMENT_SET_NO": 999, "REV_AT_EPOCH": 280, "BSTAR": -0.0066119878, "MEAN_MOTION_DOT": -0.01303861, "MEAN_MOTION_DDOT": 0}, "tle": {"line1": "1 66942U 25286T   25352.25003472 -.01303861  00000+0 -66120-2 0  9990", "line2": "2 66942  53.1558  22.6763 0000712  47.0431 352.4691 15.83569774  2806"}}, "geometry": {"type": "Point", "coordinates": [-144.11612199510984, -19.33903992140506]}}, {"type": "Feature", "properties": {"norad_id": 66943, "name": "STARLINK-36109", "group": "last-30-days", "lat": -21.21465394107109, "lon": -142.45740898728, "alt_km": 327.2062826468782, "timestamp": "2025-12-18T15:47:09.961909+00:00", "meta": {"OBJECT_NAME": "STARLINK-36109", "OBJECT_ID": "2025-286U", "EPOCH": "2025-12-18T06:00:02.999808", "MEAN_MOTION": 15.83687183, "ECCENTRICITY": 7.226e-05, "INCLINATION": 53.1554, "RA_OF_ASC_NODE": 22.6711, "ARG_OF_PERICENTER": 87.2831, "MEAN_ANOMALY": 314.5849, "EPHEMERIS_TYPE": 0, "CLASSIFICATION_TYPE": "U", "NORAD_CAT_ID": 66943, "ELEMENT_SET_NO": 999, "REV_AT_EPOCH": 280, "BSTAR": -0.0072908953, "MEAN_MOTION_DOT": -0.01455953, "MEAN_MOTION_DDOT": 0}, "tle": {"line1": "1 66943U 25286U   25352.25003472 -.01455953  00000+0 -72909-2 0  9993", "line2": "2 66943  53.1554  22.6711 0000722  87.2831 314.5849 15.83687183  2806"}}, "geometry": {"type": "Point", "coordinates": [-142.45740898728, -21.21465394107109]}}, {"type": "Feature", "properties": {"norad_id": 66944, "name": "STARLINK-36112", "group": "last-30-days", "lat": -22.806509021348443, "lon": -141.00435146613077, "alt_km": 327.4007245801049, "timestamp": "2025-12-18T15:47:09.961919+00:00", "meta": {"OBJECT_NAME": "STARLINK-36112", "OBJECT_ID": "2025-286V", "EPOCH": "2025-12-18T06:00:02.999808", "MEAN_MOTION": 15.83703201, "ECCENTRICITY": 9.277e-05, "INCLINATION": 53.1556, "RA_OF_ASC_NODE": 22.6668, "ARG_OF_PERICENTER": 88.2214, "MEAN_ANOMALY": 315.7184, "EPHEMERIS_TYPE": 0, "CLASSIFICATION_TYPE": "U", "NORAD_CAT_ID": 66944, "ELEMENT_SET_NO": 999, "REV_AT_EPOCH": 287, "BSTAR": -0.0073456373, "MEAN_MOTION_DOT": -0.01466762, "MEAN_MOTION_DDOT": 0}, "tle": {"line1": "1 66944U 25286V   25352.25003472 -.01466762  00000+0 -73456-2 0  9992", "line2": "2 66944  53.1556  22.6668 0000927  88.2214 315.7184 15.83703201  2875"}}, "geometry": {"type": "Point", "coordinates": [-141.00435146613077, -22.806509021348443]}}, {"type": "Feature", "properties": {"norad_id": 66945, "name": "STARLINK-36110", "group": "last-30-days", "lat": -24.614343701453198, "lon": -139.29630335232574, "alt_km": 327.5583973515959, "timestamp": "2025-12-18T15:47:09.961929+00:00", "meta": {"OBJECT_NAME": "STARLINK-36110", "OBJECT_ID": "2025-286W", "EPOCH": "2025-12-18T06:00:02.999808", "MEAN_MOTION": 15.83696187, "ECCENTRICITY": 8.359e-05, "INCLINATION": 53.1553, "RA_OF_ASC_NODE": 22.6616, "ARG_OF_PERICENTER": 89.3814, "MEAN_ANOMALY": 316.9694, "EPHEMERIS_TYPE": 0, "CLASSIFICATION_TYPE": "U", "NORAD_CAT_ID": 66945, "ELEMENT_SET_NO": 999, "REV_AT_EPOCH": 287, "BSTAR": -0.007380755, "MEAN_MOTION_DOT": -0.01472466, "MEAN_MOTION_DDOT": 0}, "tle": {"line1": "1 66945U 25286W   25352.25003472 -.01472466  00000+0 -73808-2 0  9992", "line2": "2 66945  53.1553  22.6616 0000835  89.3814 316.9694 15.83696187  2875"}}, "geometry": {"type": "Point", "coordinates": [-139.29630335232574, -24.614343701453198]}}, {"type": "Feature", "properties": {"norad_id": 66946, "name": "STARLINK-36115", "group": "last-30-days", "lat": -26.241537301059452, "lon": -137.6993901701783, "alt_km": 327.731980371771, "timestamp": "2025-12-18T15:47:09.961939+00:00", "meta": {"OBJECT_NAME": "STARLINK-36115", "OBJECT_ID": "2025-286X", "EPOCH": "2025-12-18T06:00:02.999808", "MEAN_MOTION": 15.83704453, "ECCENTRICITY": 8.765e-05, "INCLINATION": 53.1554, "RA_OF_ASC_NODE": 22.6571, "ARG_OF_PERICENTER": 87.8206, "MEAN_ANOMALY": 320.7035, "EPHEMERIS_TYPE": 0, "CLASSIFICATION_TYPE": "U", "NORAD_CAT_ID": 66946, "ELEMENT_SET_NO": 999, "REV_AT_EPOCH": 287, "BSTAR": -0.0074271324, "MEAN_MOTION_DOT": -0.01481191, "MEAN_MOTION_DDOT": 0}, "tle": {"line1": "1 66946U 25286X   25352.25003472 -.01481191  00000+0 -74271-2 0  9993", "line2": "2 66946  53.1554  22.6571 0000876  87.8206 320.7035 15.83704453  2878"}}, "geometry": {"type": "Point", "coordinates": [-137.6993901701783, -26.241537301059452]}}]}